IRIDIUM 144             
1 43249U 18030A   24150.75392973  .00000384  00000+0  13001-3 0  9993
2 43249  86.3985 243.1600 0002163 101.5861 258.5578 14.34218729322865
IRIDIUM 149             
1 43250U 18030B   24150.76027161  .00000218  00000+0  70877-4 0  9991
2 43250  86.3984 243.1326 0002276  95.6341 264.5114 14.34218282322881
IRIDIUM 157             
1 43251U 18030C   24150.77929889  .00000186  00000+0  59250-4 0  9997
2 43251  86.3988 243.1613 0002487  90.0506 270.0974 14.34218715322866
IRIDIUM 140             
1 43252U 18030D   24150.79832579  .00000030  00000+0  35956-5 0  9995
2 43252  86.3984 243.1679 0001760  99.1485 260.9910 14.34217858322926
IRIDIUM 145             
1 43253U 18030E   24150.78564204  .00000121  00000+0  36148-4 0  9996
2 43253  86.3986 243.1473 0002326 103.8928 256.2527 14.34217822322850
IRIDIUM 146             
1 43254U 18030F   24150.76661530  .00000435  00000+0  14826-3 0  9991
2 43254  86.3985 243.1698 0002209  98.2556 261.8890 14.34217584322864
IRIDIUM 148             
1 43255U 18030G   24150.80467120  .00000439  00000+0  14956-3 0  9994
2 43255  86.3987 243.1854 0002391  91.9785 268.1684 14.34219515322909
IRIDIUM 142             
1 43256U 18030H   24150.70318919  .00000361  00000+0  12183-3 0  9999
2 43256  86.3984 243.1441 0002310 101.0158 259.1298 14.34219999322858
